EUTELSAT 53A            
1 40277U 14064A   26155.14779456  .00000110  00000+0  00000+0 0  9997
2 40277   0.0132 283.7907 0000690 237.4697 197.5441  1.00271885 41432
GSAT-16                 
1 40332U 14078A   26155.14822789  .00000097  00000+0  00000+0 0  9996
2 40332   0.0593  95.2110 0007941 348.4490 277.3778  1.00271053 41973
DIRECTV 14              
1 40333U 14078B   26154.97502953 -.00000113  00000+0  00000+0 0  9995
2 40333   0.0107 331.1802 0000240 175.9193 357.1086  1.00271680 41912
YAMAL 401               
1 40345U 14082A   26155.18566792  .00000000  00000+0  00000+0 0  9992
2 40345   0.0155 324.3022 0000024 128.6369 316.4880  1.00272330 41784
ASTRA 2G                
1 40364U 14089A   26155.14285454  .00000162  00000+0  00000+0 0  9998
2 40364   0.0476   2.2911 0005272  56.0609 273.8804  1.00269984 41830
FENGYUN 2G              
1 40367U 14090A   26154.80052208 -.00000292  00000+0  00000+0 0  9999
2 40367   5.6052  72.9774 0003440 153.7233  53.2439  1.00279146 41866
MUOS-3                  
1 40374U 15002A   26155.06301847 -.00000118  00000+0  00000+0 0  9993
2 40374   4.4965  43.4682 0051531 178.7541  37.5385  1.00272302 41455
INMARSAT 5-F2           
1 40384U 15005A   26154.84121437 -.00000273  00000+0  00000+0 0  9999
2 40384   0.0178 358.3891 0000655 188.3532 313.3768  1.00272434 40862
ABS-3A                  
1 40424U 15010A   26155.20798762 -.00000015  00000+0  00000+0 0  9996
2 40424   0.0123 117.8614 0001637 274.0855 292.5944  1.00269958 41244
EUTELSAT 115 WEST B     
1 40425U 15010B   26155.04324012 -.00000013  00000+0  00000+0 0  9990
2 40425   0.0106 149.0780 0000356 132.9776 231.1045  1.00273244 41264
EXPRESS-AM7             
1 40505U 15012A   26155.14519455  .00000163  00000+0  00000+0 0  9994
2 40505   0.0161   5.3429 0003356  73.5350 265.9769  1.00272126 40871
BEIDOU-3S IGSO-1S       
1 40549U 15019A   26154.87108398 -.00000164  00000+0  00000+0 0  9990
2 40549  49.2213 295.6213 0038494 191.1761 171.6675  1.00254002 40941
THOR 7                  
1 40613U 15022A   26155.20850763  .00000000  00000+0  00000+0 0  9992
2 40613   0.0089 324.9475 0002826 106.8515 255.2709  1.00270781 40685
TURKMENALEM52E/MONACOSAT
1 40617U 15023A   26155.22891902  .00000116  00000+0  00000+0 0  9997
2 40617   0.0403  77.6408 0003182 353.3341 316.1258  1.00271891 40712
DIRECTV 15              
1 40663U 15026A   26155.23001969 -.00000090  00000+0  00000+0 0  9990
2 40663   0.0179   3.0157 0000135  51.4831 178.0899  1.00268514 40334
SKY MEXICO-1            
1 40664U 15026B   26155.17683514 -.00000222  00000+0  00000+0 0  9993
2 40664   0.0176   1.2091 0002377  90.3229 145.9521  1.00271041 40325
METEOSAT-11 (MSG-4)     
1 40732U 15034A   26155.13912786  .00000074  00000+0  00000+0 0  9994
2 40732   3.1697  71.1815 0001631   3.3437 237.5044  1.00276233  7082
STAR ONE C4             
1 40733U 15034B   26155.17128294 -.00000253  00000+0  00000+0 0  9992
2 40733   0.0212 343.8612 0002624  82.2126 178.2170  1.00270965 39880
WGS F7 (USA 263)        
1 40746U 15036A   26155.17197466  .00000029  00000+0  00000+0 0  9995
2 40746   0.0030 356.3315 0000234 326.2170 166.9642  1.00269428 39741
INTELSAT 34 (IS-34)     
1 40874U 15039A   26155.12634287 -.00000273  00000+0  00000+0 0  9994
2 40874   0.0086 339.4745 0000331  48.0566 215.0374  1.00270050 39504
EUTELSAT 8 WEST B       
1 40875U 15039B   26155.20703428 -.00000053  00000+0  00000+0 0  9994
2 40875   0.0645 346.4874 0003847  83.5613 249.1479  1.00272103 39526
GSAT-6                  
1 40880U 15041A   26155.15368793 -.00000149  00000+0  00000+0 0  9995
2 40880   1.8867  82.7488 0003360 346.4121 321.2903  1.00272115 39463
INMARSAT 5-F3           
1 40882U 15042A   26154.81642759  .00000063  00000+0  00000+0 0  9991
2 40882   0.0167 344.9315 0000530  90.7082 290.1786  1.00273199 39435
MUOS-4                  
1 40887U 15044A   26155.21780821 -.00000083  00000+0  00000+0 0  9999
2 40887   4.3054  42.1614 0059784   4.6010 359.3460  1.00272578 39438
TJS-1                   
1 40892U 15046A   26155.28633152 -.00000143  00000+0  00000+0 0  9995
2 40892   0.2898  85.0135 0005928 352.3885  73.4524  1.00273450 39449
EXPRESS-AM8             
1 40895U 15048A   26155.13453450 -.00000099  00000+0  00000+0 0  9995
2 40895   0.0138 285.4569 0000225 145.1579 216.4022  1.00271823 39216
BEIDOU-3S IGSO-2S       
1 40938U 15053A   26154.76900250 -.00000130  00000+0  00000+0 0  9998
2 40938  49.2433 258.9424 0064940 192.1078 173.8319  1.00263058 39229
SKY MUSTER 1 (NBN1A)    
1 40940U 15054A   26155.30765920  .00000000  00000+0  00000+0 0  9991
2 40940   0.0233 338.1484 0001902 110.9778  54.6175  1.00270268 39133
ARSAT 2                 
1 40941U 15054B   26155.12129499 -.00000213  00000+0  00000+0 0  9994
2 40941   0.0380  61.2687 0002278   1.5947 152.3901  1.00271777 39179
MORELOS 3               
1 40946U 15056A   26155.23725381 -.00000032  00000+0  00000+0 0  9994
2 40946   3.1768  14.7367 0001804 349.4653 220.7886  1.00270788 39159
APSTAR-9                
1 40982U 15059A   26155.30800587 -.00000253  00000+0  00000+0 0  9992
2 40982   0.0167 333.4935 0002062 203.9246 328.2419  1.00272071 38993
TURKSAT 4B              
1 40984U 15060A   26155.14718789  .00000126  00000+0  00000+0 0  9998
2 40984   0.0178 335.0569 0002461  97.3354 283.2088  1.00275414 38969
